# From MPEC 2022-K19
243P/NEAT,e,7.6442,87.6481,283.6957,3.827370,0.1316295,0.36040164,307.6784,01/24.0/2025,2000,g 12.5,4.0
# From MPEC 2024-L77
244P/Scotti,e,2.2579,354.0096,93.4335,4.903331,0.0907752,0.19989231,72.2849,01/24.0/2025,2000,g  9.0,4.0
# From MPEC 2022-CN4
245P/WISE,e,21.1721,316.8868,316.5151,4.051837,0.1208443,0.45571734,307.8854,01/24.0/2025,2000,g 14.0,4.0
# From MPEC 2024-YC7
246P/NEAT,e,17.6807,74.2487,185.7048,4.255545,0.1122720,0.23226137,167.8622,01/24.0/2025,2000,g 10.5,4.0
# From MPEC 2021-F20
247P/LINEAR,e,13.6582,53.9968,47.4813,3.964520,0.1248585,0.62555186,280.0972,01/24.0/2025,2000,g 16.5,2.0
# From MPC 75730
248P/Gibbs,e,6.3518,207.8081,209.9725,5.982295,0.0673600,0.63929405,344.2437,01/24.0/2025,2000,g 14.0,4.0
# From MPEC 2022-YN2
249P/LINEAR,e,8.3854,239.0430,65.7431,2.765037,0.2143644,0.81935028,358.1363,01/24.0/2025,2000,g 15.5,4.0
# From MPEC 2025-A40
250P/Larson,e,13.1530,73.3056,45.7230,3.779382,0.1341445,0.39878173,344.8712,01/24.0/2025,2000,g 14.5,4.0
# From MPEC 2024-TD8
251P/LINEAR,e,23.3874,219.3387,31.1993,3.512280,0.1497340,0.50426109,51.7803,01/24.0/2025,2000,g 16.5,2.0
# From MPEC 2021-S45
252P/LINEAR,e,10.4187,190.9058,343.3758,3.051236,0.1849228,0.67096455,239.2794,01/24.0/2025,2000,g 17.5,4.0
# From MPEC 2025-AH4
253P/PANSTARRS,e,4.9440,146.8596,230.8299,3.463479,0.1529098,0.41480925,14.5258,01/24.0/2025,2000,g 14.5,4.0
# From MPEC 2024-EF7
254P/McNaught,e,32.5405,129.1815,219.7443,4.619658,0.0992635,0.31863254,156.6301,01/24.0/2025,2000,g 11.0,4.0
# From NK 2214
255P/Levy,e,13.4052,275.6366,186.0396,2.942324,0.1952847,0.71203281,169.7140,01/24.0/2025,2000,g  9.0,4.0
# From MPEC 2024-L77
256P/LINEAR,e,27.6243,81.3290,124.0822,4.635649,0.0987503,0.41791712,67.5528,01/24.0/2025,2000,g 14.0,2.0
# From MPEC 2023-A50
257P/Catalina,e,20.2173,207.7242,117.7506,3.767444,0.1347826,0.42887018,215.4140,01/24.0/2025,2000,g 11.5,4.0
# From MPEC 2021-U31
258P/PANSTARRS,e,6.7510,126.2353,25.5889,4.389480,0.1071728,0.20938143,180.1741,01/24.0/2025,2000,g 13.0,4.0
# From MPC106349
259P/Garradd,e,15.8984,51.3712,257.5083,2.729151,0.2186063,0.33873154,236.4395,01/24.0/2025,2000,g 15.5,4.0
# From MPEC 2022-O01
260P/McNaught,e,15.0444,349.3138,18.4917,3.623454,0.1428959,0.60888350,280.2723,01/24.0/2025,2000,g 13.5,4.0
# From MPEC 2021-J28
261P/Larson,e,6.0732,291.0511,67.3666,3.489857,0.1511794,0.42287839,308.9972,01/24.0/2025,2000,g 14.0,4.0
# From MPC 82322
262P/McNaught-Russell,e,29.2620,217.8880,171.0704,6.869195,0.0547451,0.81612743,242.2654,01/24.0/2025,2000,g 13.5,4.0
# From MPEC 2024-L77
263P/Gibbs,e,11.5266,105.5036,35.0193,3.040972,0.1858598,0.59395885,134.6024,01/24.0/2025,2000,g 18.0,4.0
# From MPC114608
264P/Larsen,e,25.2164,219.2727,341.1413,4.026547,0.1219846,0.34095477,264.7819,01/24.0/2025,2000,g 13.0,4.0
# From MPC 79870
265P/LINEAR,e,14.3445,342.9306,33.5535,4.260283,0.1120847,0.64693060,161.9649,01/24.0/2025,2000,g 14.5,4.0
# From MPEC 2021-F20
266P/Christensen,e,3.4280,4.9498,97.7629,3.528428,0.1487073,0.34088634,258.5420,01/24.0/2025,2000,g 14.7,4.0
# From MPC114608
267P/LONEOS,e,6.1416,228.5878,114.2236,3.210016,0.1713734,0.61455921,46.9819,01/24.0/2025,2000,g 19.5,4.0
# From MPEC 2025-AE4
268P/Bernardi,e,15.6612,125.6320,0.0119,4.591899,0.1001649,0.47458923,3.6591,01/24.0/2025,2000,g 14.0,4.0
# From MPEC 2023-J29
269P/Jedicke,e,7.0845,241.7725,225.7010,7.059361,0.0525480,0.43339008,197.6223,01/24.0/2025,2000,g 10.0,4.0
# From MPC 88332
270P/Gehrels,e,2.9251,223.0352,209.8981,6.650065,0.0574732,0.47020794,243.3117,01/24.0/2025,2000,g  8.0,4.0
# From MPC 92277
271P/van Houten-Lemmon,e,6.8678,9.2945,36.5916,7.032144,0.0528533,0.39605610,221.9007,01/24.0/2025,2000,g 11.0,4.0
# From MPEC 2023-D41
272P/NEAT,e,18.0812,109.4396,27.8814,4.461801,0.1045776,0.45541767,96.3859,01/24.0/2025,2000,g 16.0,2.0
# From MPC 82723
273P/Pons-Gambart,e,136.4206,320.3902,20.1494,31.95518,0.0054562,0.97449823,0.0000,12/22.3321/2012,2000,g 11.5,4.0
# From MPEC 2024-GJ3
274P/Tombaugh-Tenagra,e,15.8213,81.3180,38.4809,4.378207,0.1075870,0.44019136,109.8480,01/24.0/2025,2000,g 13.0,4.0
# From MPC 81862
275P/Hermann,e,21.2554,348.6883,173.8999,5.793905,0.0706719,0.71363744,314.6229,01/24.0/2025,2000,g 17.0,4.0
# From MPEC 2025-AH4
276P/Vorobjov,e,14.7954,211.3278,199.2737,5.354585,0.0795455,0.27189653,3.5184,01/24.0/2025,2000,g 11.5,4.0
# From MPEC 2021-F20
277P/LINEAR,e,16.7925,276.2606,152.4268,3.853517,0.1302921,0.50647582,193.4108,01/24.0/2025,2000,g 15.1,4.0
# From MPEC 2021-S45
278P/McNaught,e,6.6300,14.0633,238.7011,3.654739,0.1410651,0.44697585,223.6003,01/24.0/2025,2000,g 14.0,4.0
# From MPEC 2024-A43
279P/LaSagra,e,5.0516,346.1096,5.6744,3.569340,0.1461578,0.39934869,94.4359,01/24.0/2025,2000,g 14.0,4.0
# From MPEC 2024-RQ6
280P/Larsen,e,11.7751,131.3769,104.6636,4.525287,0.1023847,0.41678342,55.1407,01/24.0/2025,2000,g 12.5,4.0
# From MPEC 2023-D41
281P/MOSS,e,4.7177,87.1654,26.9271,4.885443,0.0912742,0.17388838,65.7537,01/24.0/2025,2000,g 11.0,4.0
# From MPC133426
282P/,e,5.8131,217.6093,9.1395,4.235946,0.1130520,0.18761282,134.4173,01/24.0/2025,2000,g 13.5,2.0
# From MPEC 2022-K19
283P/Spacewatch,e,14.4660,161.1217,22.1459,4.132246,0.1173343,0.48476748,144.7948,01/24.0/2025,2000,g 16.0,2.0
# From MPEC 2024-D33
284P/McNaught,e,11.8540,144.2663,202.4759,3.678534,0.1396986,0.37445754,171.8755,01/24.0/2025,2000,g 13.0,4.0
# From MPEC 2024-L77
285P/LINEAR,e,25.0346,185.5106,178.3920,4.505720,0.1030523,0.61818961,76.5707,01/24.0/2025,2000,g 15.0,4.0
# From MPEC 2024-LE0
286P/Christensen,e,17.1813,283.5770,24.3298,4.088443,0.1192249,0.42889363,117.7994,01/24.0/2025,2000,g 14.0,4.0
# From MPEC 2025-A40
287P/Christensen,e,16.3178,138.8607,189.8549,4.178584,0.1153879,0.27271043,65.2183,01/24.0/2025,2000,g 13.5,4.0
# From MPC133426
288P/,e,3.2383,83.1048,280.3073,3.050079,0.1850279,0.19977742,196.0810,01/24.0/2025,2000,g 16.0,2.0
# From MPEC 2024-O39
289P/Blanpain,e,5.9003,68.8914,9.8790,3.043832,0.1855979,0.68646718,345.0927,01/24.0/2025,2000,g 19.0,4.0
# From MPC 95214
290P/Jager,e,20.0476,302.6761,181.8423,6.214578,0.0636190,0.62815488,255.6494,01/24.0/2025,2000,g 10.5,4.0
# From MPEC 2024-YC7
291P/NEAT,e,6.3098,237.6588,173.5507,4.534564,0.1020706,0.43399372,64.4013,01/24.0/2025,2000,g 13.0,4.0
# From MPEC 2022-K19
292P/Li,e,24.3225,90.8953,319.6535,6.096467,0.0654767,0.58998465,261.8235,01/24.0/2025,2000,g 12.5,4.0
# From MPEC 2022-L66
293P/Spacewatch,e,9.0614,78.3661,40.9657,3.638056,0.1420365,0.41943965,212.4197,01/24.0/2025,2000,g 14.5,4.0
# From MPEC 2025-AH4
294P/LINEAR,e,17.7396,309.6079,237.5643,3.191865,0.1728372,0.60113914,325.5754,01/24.0/2025,2000,g 15.5,4.0
# From MPEC 2022-K19
295P/LINEAR,e,21.0825,7.3862,73.0223,5.299999,0.0807775,0.61766405,316.0006,01/24.0/2025,2000,g 12.0,4.0
# From MPEC 2021-N06
296P/Garradd,e,25.3779,263.5309,350.0221,3.478604,0.1519136,0.48413001,240.5565,01/24.0/2025,2000,g 14.0,4.0
# From MPC102956
297P/Beshore,e,11.2007,92.2354,142.1123,3.556155,0.1469715,0.29256517,215.0729,01/24.0/2025,2000,g 15.0,4.0
# From MPC114609
298P/Christensen,e,7.8717,52.7913,100.6051,3.588493,0.1449893,0.38677870,232.1367,01/24.0/2025,2000,g 15.0,4.0
# From MPEC 2024-TD8
299P/Catalina-PANSTARRS,e,10.4691,271.5808,323.6388,4.388957,0.1071919,0.28090294,28.8237,01/24.0/2025,2000,g 11.5,4.0
# From MPEC 2023-VM5
300P/Catalina,e,5.6764,95.6204,222.8928,2.696714,0.2225623,0.69191612,145.5474,01/24.0/2025,2000,g 16.0,4.0
# From MPC 89014
301P/LINEAR-NEAT,e,10.3291,351.0651,193.4460,5.750496,0.0714737,0.58607145,273.5553,01/24.0/2025,2000,g 13.0,4.0
# From MPEC 2024-YC7
302P/Lemmon-PANSTARRS,e,6.0355,121.7150,208.6337,4.268078,0.1117778,0.22948246,355.0324,01/24.0/2025,2000,g 12.5,4.0
# From MPC 92278
303P/NEAT,e,7.0162,347.9553,357.0295,5.040192,0.0871031,0.51034788,325.8634,01/24.0/2025,2000,g 13.5,4.0
# From MPEC 2022-K19
304P/Ory,e,2.6059,58.9400,335.2765,3.149843,0.1763075,0.60090883,286.2740,01/24.0/2025,2000,g 16.5,4.0
# From MPEC 2025-AH4
305P/Skiff,e,11.6716,240.1047,147.4212,4.637221,0.0987001,0.69407740,6.6964,01/24.0/2025,2000,g 18.0,4.0
# From MPC 92278
306P/LINEAR,e,8.3028,341.3553,0.8976,3.124458,0.1784604,0.59260071,326.1555,01/24.0/2025,2000,g 19.0,4.0
# From MPC 92278
307P/LINEAR,e,4.4351,158.1290,222.2442,5.787766,0.0707844,0.67517732,260.3362,01/24.0/2025,2000,g 15.0,4.0
# From MPEC 2022-C56
308P/Lagerkvist-Carsenty,e,4.8528,63.0978,333.7522,6.600408,0.0581230,0.36439190,205.8259,01/24.0/2025,2000,g 13.0,2.0
# From MPEC 2024-BE0
309P/LINEAR,e,17.0211,10.1375,49.9117,4.374649,0.1077182,0.61828747,32.4264,01/24.0/2025,2000,g 15.0,4.0
# From MPEC 2024-LE0
310P/Hill,e,13.1200,8.8839,31.5289,4.181686,0.1152596,0.42219825,52.8772,01/24.0/2025,2000,g 13.5,4.0
# From MPEC 2024-A43
311P/PANSTARRS,e,4.9712,279.1695,144.2579,2.188456,0.3044369,0.11558935,118.1643,01/24.0/2025,2000,g 17.0,4.0
# From MPEC 2024-NE4
312P/NEAT,e,19.7473,144.6421,207.7087,3.471964,0.1523496,0.42680472,241.1014,01/24.0/2025,2000,g 16.0,4.0
# From MPEC 2024-N80
313P/Gibbs,e,10.9809,105.9254,254.9799,3.163585,0.1751599,0.23455309,305.2274,01/24.0/2025,2000,g 15.0,4.0
# From MPC105243
314P/Montani,e,3.9921,267.6233,213.8490,7.249511,0.0504941,0.41842613,152.7670,01/24.0/2025,2000,g  9.5,4.0
# From MPEC 2023-J29
315P/LONEOS,e,17.7334,68.6556,65.8769,4.937161,0.0898438,0.52195851,267.7690,01/24.0/2025,2000,g 11.0,4.0
# From MPEC 2024-NE4
316P/LONEOS-Christensen,e,9.8834,245.9251,187.6239,4.418820,0.1061071,0.15821983,11.3233,01/24.0/2025,2000,g 13.5,4.0
# From MPEC 2020-C98
317P/WISE,e,11.9744,275.4715,334.8733,2.959844,0.1935534,0.57195318,305.8302,01/24.0/2025,2000,g 17.5,4.0
# From MPC102103
318P/McNaught-Hartley,e,17.8687,35.5889,313.3201,7.513544,0.0478560,0.67356598,161.7654,01/24.0/2025,2000,g  8.5,6.0
# From MPC 97499
319P/Catalina-McNaught,e,15.0944,111.3458,203.6301,3.562916,0.1465533,0.66627756,150.9839,01/24.0/2025,2000,g 15.0,4.0
# From MPC 96281
320P/McNaught,e,4.9025,295.9387,0.7613,3.095704,0.1809527,0.68480602,265.9167,01/24.0/2025,2000,g 20.5,4.0
# From MPC105243
